OBJECT_NAME,OBJECT_ID,EPOCH,MEAN_MOTION,ECCENTRICITY,INCLINATION,RA_OF_ASC_NODE,ARG_OF_PERICENTER,MEAN_ANOMALY,EPHEMERIS_TYPE,CLASSIFICATION_TYPE,NORAD_CAT_ID,ELEMENT_SET_NO,REV_AT_EPOCH,BSTAR,MEAN_MOTION_DOT,MEAN_MOTION_DDOT
TERRA,1999-068A,2007-10-31T03:46:37.794432,14.57130856,.0001434,98.2225,16.4747,92.7889,267.3498,0,U,25994,990,41850,.22701E-4,.57E-6,0
TERRA,1999-068A,2007-10-31T10:22:09.628032,14.57130982,.0001421,98.2224,16.7458,92.5111,267.6252,0,U,25994,991,41854,.26684E-4,.75E-6,0
TERRA,1999-068A,2007-10-31T18:36:34.452000,14.57131088,.0001446,98.2223,17.0846,93.1354,267.0003,0,U,25994,992,41859,.27692E-4,.79E-6,0
TERRA,1999-068A,2007-10-31T21:54:20.399904,14.57131043,.0001452,98.2222,17.2202,92.9339,267.2019,0,U,25994,993,41861,.27309E-4,.78E-6,0
TERRA,1999-068A,2007-11-01T01:12:06.346944,14.57131238,.000146,98.2221,17.3557,92.1203,268.0167,0,U,25994,993,41863,.33738E-4,.107E-5,0
TERRA,1999-068A,2007-11-01T06:08:45.240288,14.57131654,.0001439,98.2220,17.5590,92.5779,267.5605,0,U,25994,994,41866,.45699E-4,.161E-5,0
TERRA,1999-068A,2007-11-01T19:19:48.918720,14.57131395,.0001448,98.2220,18.1013,93.7122,266.4222,0,U,25994,995,41874,.2653E-4,.74E-6,0
TERRA,1999-068A,2007-11-02T03:34:13.789344,14.57131601,.0001447,98.2221,18.4402,94.0260,266.1115,0,U,25994,996,41879,.30912E-4,.94E-6,0
TERRA,1999-068A,2007-11-02T11:48:38.600352,14.57131640,.0001446,98.2220,18.7790,94.9119,265.2247,0,U,25994,997,41884,.2914E-4,.86E-6,0
TERRA,1999-068A,2007-11-02T18:24:10.460736,14.57131550,.0001446,98.2217,19.0498,94.8250,265.3109,0,U,25994,998,41888,.22098E-4,.54E-6,0
TERRA,1999-068A,2007-11-02T23:20:49.367040,14.57131444,.0001452,98.2216,19.2531,93.7086,266.4267,0,U,25994,999,41891,.18748E-4,.39E-6,0
TERRA,1999-068A,2007-11-03T04:17:28.277664,14.57131796,.0001432,98.2217,19.4564,94.5007,265.6372,0,U,25994,999,41894,.28597E-4,.83E-6,0
TERRA,1999-068A,2007-11-03T10:53:00.109536,14.57131931,.0001431,98.2216,19.7275,93.8132,266.3233,0,U,25994,0,41898,.31074E-4,.95E-6,0
TERRA,1999-068A,2007-11-03T19:07:24.910176,14.57131782,.0001448,98.2216,20.0662,93.9017,266.2329,0,U,25994,1,41903,.20895E-4,.49E-6,0
TERRA,1999-068A,2007-11-03T22:25:10.871040,14.57131759,.0001443,98.2216,20.2018,93.8824,266.2536,0,U,25994,2,41905,.21164E-4,.5E-6,0
TERRA,1999-068A,2007-11-04T01:42:56.807712,14.57131764,.0001443,98.2215,20.3373,93.8282,266.3082,0,U,25994,2,41907,.19777E-4,.44E-6,0
TERRA,1999-068A,2007-11-04T11:36:14.564160,14.57132017,.0001427,98.2216,20.7439,94.4160,265.7200,0,U,25994,3,41913,.22418E-4,.56E-6,0
TERRA,1999-068A,2007-11-04T18:11:46.421952,14.57131888,.0001419,98.2215,21.0151,93.3827,266.7526,0,U,25994,4,41917,.14805E-4,.21E-6,0
TERRA,1999-068A,2007-11-04T21:29:32.363808,14.57131667,.0001432,98.2216,21.1506,92.9744,267.1603,0,U,25994,5,41919,.84637E-5,-.7E-7,0
TERRA,1999-068A,2007-11-05T04:05:04.236288,14.57132130,.0001409,98.2216,21.4219,90.8823,269.2549,0,U,25994,5,41923,.23843E-4,.62E-6,0
TERRA,1999-068A,2007-11-05T10:40:36.069024,14.57132118,.0001412,98.2217,21.6930,91.1270,269.0088,0,U,25994,6,41927,.21947E-4,.54E-6,0
TERRA,1999-068A,2007-11-05T18:55:00.885216,14.57131991,.000141,98.2215,22.0318,90.9339,269.2010,0,U,25994,7,41932,.14172E-4,.18E-6,0
TERRA,1999-068A,2007-11-05T22:12:46.831392,14.57132032,.0001409,98.2217,22.1675,91.1943,268.9416,0,U,25994,8,41934,.18297E-4,.37E-6,0
TERRA,1999-068A,2007-11-06T01:30:32.762016,14.57132024,.0001406,98.2217,22.3030,91.3758,268.7603,0,U,25994,8,41936,.16118E-4,.27E-6,0
TERRA,1999-068A,2007-11-06T13:02:43.496736,14.57132118,.0001411,98.2217,22.7774,91.7988,268.3378,0,U,25994,9,41943,.11569E-4,.7E-7,0
TERRA,1999-068A,2007-11-06T21:17:08.310336,14.57131959,.0001395,98.2219,23.1165,89.8027,270.3322,0,U,25994,10,41948,.68008E-5,-.15E-6,0
TERRA,1999-068A,2007-11-07T03:52:40.181088,14.57132124,.000138,98.2222,23.3877,88.9609,271.1758,0,U,25994,11,41952,.10528E-4,.2E-7,0
TERRA,1999-068A,2007-11-07T12:07:04.979136,14.57132282,.0001377,98.2222,23.7266,89.1051,271.0310,0,U,25994,12,41957,.16065E-4,.27E-6,0
TERRA,1999-068A,2007-11-07T17:03:43.860384,14.57132286,.0001417,98.2225,23.9302,90.7008,269.4354,0,U,25994,13,41960,.14081E-4,.18E-6,0
TERRA,1999-068A,2007-11-07T22:00:22.746816,14.57132323,.0001396,98.2226,24.1336,90.0466,270.0888,0,U,25994,14,41963,.20347E-4,.46E-6,0
TERRA,1999-068A,2007-11-08T02:57:01.655712,14.57132368,.0001402,98.2225,24.3369,89.6719,270.4650,0,U,25994,14,41966,.19318E-4,.42E-6,0
TERRA,1999-068A,2007-11-08T09:32:33.472896,14.57132451,.0001402,98.2227,24.6080,90.6252,269.5102,0,U,25994,15,41970,.20787E-4,.48E-6,0
