1 25994U 99068A   07304.15738188  .00000057  00000-0  22701-4 0  9905
2 25994  98.2225  16.4747 0001434  92.7889 267.3498 14.57130856418500
1 25994U 99068A   07304.43205588  .00000075  00000-0  26684-4 0  9914
2 25994  98.2224  16.7458 0001421  92.5111 267.6252 14.57130982418548
1 25994U 99068A   07304.77539875  .00000079  00000-0  27692-4 0  9925
2 25994  98.2223  17.0846 0001446  93.1354 267.0003 14.57131088418596
1 25994U 99068A   07304.91273611  .00000078  00000-0  27309-4 0  9939
2 25994  98.2222  17.2202 0001452  92.9339 267.2019 14.57131043418613
1 25994U 99068A   07305.05007346  .00000107  00000-0  33738-4 0  9931
2 25994  98.2221  17.3557 0001460  92.1203 268.0167 14.57131238418638
1 25994U 99068A   07305.25607917  .00000161  00000-0  45699-4 0  9943
2 25994  98.2220  17.5590 0001439  92.5779 267.5605 14.57131654418660
1 25994U 99068A   07305.80542730  .00000074  00000-0  26530-4 0  9952
2 25994  98.2220  18.1013 0001448  93.7122 266.4222 14.57131395418746
1 25994U 99068A   07306.14877071  .00000094  00000-0  30912-4 0  9961
2 25994  98.2221  18.4402 0001447  94.0260 266.1115 14.57131601418791
1 25994U 99068A   07306.49211343  .00000086  00000-0  29140-4 0  9976
2 25994  98.2220  18.7790 0001446  94.9119 265.2247 14.57131640418849
1 25994U 99068A   07306.76678774  .00000054  00000-0  22098-4 0  9982
2 25994  98.2217  19.0498 0001446  94.8250 265.3109 14.57131550418881
1 25994U 99068A   07306.97279360  .00000039  00000-0  18748-4 0  9994
2 25994  98.2216  19.2531 0001452  93.7086 266.4267 14.57131444418915
1 25994U 99068A   07307.17879951  .00000083  00000-0  28597-4 0  9991
2 25994  98.2217  19.4564 0001432  94.5007 265.6372 14.57131796418945
1 25994U 99068A   07307.45347349  .00000095  00000-0  31074-4 0    03
2 25994  98.2216  19.7275 0001431  93.8132 266.3233 14.57131931418985
1 25994U 99068A   07307.79681609  .00000049  00000-0  20895-4 0    19
2 25994  98.2216  20.0662 0001448  93.9017 266.2329 14.57131782419037
1 25994U 99068A   07307.93415360  .00000050  00000-0  21164-4 0    27
2 25994  98.2216  20.2018 0001443  93.8824 266.2536 14.57131759419050
1 25994U 99068A   07308.07149083  .00000044  00000-0  19777-4 0    29
2 25994  98.2215  20.3373 0001443  93.8282 266.3082 14.57131764419077
1 25994U 99068A   07308.48350190  .00000056  00000-0  22418-4 0    37
2 25994  98.2216  20.7439 0001427  94.4160 265.7200 14.57132017419133
1 25994U 99068A   07308.75817618  .00000021  00000-0  14805-4 0    44
2 25994  98.2215  21.0151 0001419  93.3827 266.7526 14.57131888419177
1 25994U 99068A   07308.89551347 -.00000007  00000-0  84637-5 0    50
2 25994  98.2216  21.1506 0001432  92.9744 267.1603 14.57131667419199
1 25994U 99068A   07309.17018792  .00000062  00000-0  23843-4 0    55
2 25994  98.2216  21.4219 0001409  90.8823 269.2549 14.57132130419235
1 25994U 99068A   07309.44486191  .00000054  00000-0  21947-4 0    62
2 25994  98.2217  21.6930 0001412  91.1270 269.0088 14.57132118419278
1 25994U 99068A   07309.78820469  .00000018  00000-0  14172-4 0    72
2 25994  98.2215  22.0318 0001410  90.9339 269.2010 14.57131991419323
1 25994U 99068A   07309.92554203  .00000037  00000-0  18297-4 0    82
2 25994  98.2217  22.1675 0001409  91.1943 268.9416 14.57132032419349
1 25994U 99068A   07310.06287919  .00000027  00000-0  16118-4 0    85
2 25994  98.2217  22.3030 0001406  91.3758 268.7603 14.57132024419368
1 25994U 99068A   07310.54355899  .00000007  00000-0  11569-4 0    95
2 25994  98.2217  22.7774 0001411  91.7988 268.3378 14.57132118419439
1 25994U 99068A   07310.88690174 -.00000015  00000-0  68008-5 0   103
2 25994  98.2219  23.1165 0001395  89.8027 270.3322 14.57131959419482
1 25994U 99068A   07311.16157617  .00000002  00000-0  10528-4 0   114
2 25994  98.2222  23.3877 0001380  88.9609 271.1758 14.57132124419520
1 25994U 99068A   07311.50491874  .00000027  00000-0  16065-4 0   128
2 25994  98.2222  23.7266 0001377  89.1051 271.0310 14.57132282419579
1 25994U 99068A   07311.71092431  .00000018  00000-0  14081-4 0   134
2 25994  98.2225  23.9302 0001417  90.7008 269.4354 14.57132286419607
1 25994U 99068A   07311.91692994  .00000046  00000-0  20347-4 0   140
2 25994  98.2226  24.1336 0001396  90.0466 270.0888 14.57132323419630
1 25994U 99068A   07312.12293583  .00000042  00000-0  19318-4 0   147
2 25994  98.2225  24.3369 0001402  89.6719 270.4650 14.57132368419663
1 25994U 99068A   07312.39760964  .00000048  00000-0  20787-4 0   157
2 25994  98.2227  24.6080 0001402  90.6252 269.5102 14.57132451419701
